ORBCOMM FM27            
1 25481U 98053G   23155.76487668  .00000702  00000+0  29753-3 0  9990
2 25481  45.0051 180.5733 0003012 269.6181  90.4321 14.34310791290815
SCD 2                   
1 25504U 98060A   23156.13600597  .00000457  00000+0  78650-4 0  9992
2 25504  24.9961  59.9153 0016922 303.6820 205.0383 14.44429369300249
ISS (ZARYA)             
1 25544U 98067A   23156.38425926  .00012599  00000+0  22444-3 0  9990
2 25544  51.6424  27.0478 0005522  55.0745 281.4638 15.50489937399950
SWAS                    
1 25560U 98071A   23155.78138007  .00001612  00000+0  14839-3 0  9990
2 25560  69.8964 177.3409 0006562 174.1085 186.0150 14.96854243330708
SKYNET 4E               
1 25639U 99009B   23155.81736878 -.00000027  00000+0  00000+0 0  9994
2 25639  11.4279  15.0667 0002002  59.3662 111.6420  1.00274954 40271
LANDSAT 7               
1 25682U 99020A   23156.21686441  .00000453  00000+0  10320-3 0  9992
2 25682  97.9297 195.0621 0001819  93.0378 342.2287 14.60106286284030
DLR-TUBSAT              
1 25757U 99029B   23155.92419798  .00000127  00000+0  43375-4 0  9995
2 25757  98.5334 107.8226 0015377 121.0024 239.2683 14.51661140272518
CXO                     
1 25867U 99040B   23157.38137168  .00000610  00000+0  00000+0 0  9990
2 25867  37.6776 198.2438 9048520 261.2194   0.1201  0.37813818 24294
ABS-6                   
1 25924U 99053A   23156.10327007 -.00000105  00000+0  00000+0 0  9990
2 25924   0.0107  54.2445 0002889  25.8016   9.3813  1.00275818 86724
NAVSTAR 46 (USA 145)    
1 25933U 99055A   23155.45933890 -.00000069  00000+0  00000+0 0  9991
2 25933  52.2895 343.5330 0134316 140.1355 221.0655  2.00566247173344
UFO 10 (USA 146)        
1 25967U 99063A   23155.95631014 -.00000179  00000+0  00000+0 0  9997
2 25967   9.1514  32.1956 0004220  65.9767 116.4409  1.00271557 86226
ORBCOMM FM32            
1 25982U 99065C   23156.00686593  .00000673  00000+0  29383-3 0  9992
2 25982  45.0181   2.6060 0005103 284.9233  75.1049 14.33105312228013
ORBCOMM FM35            
1 25985U 99065F   23156.00356477  .00000777  00000+0  32534-3 0  9997
2 25985  45.0418   2.4472 0002731 290.9179  69.1376 14.34098325228195
XMM-NEWTON              
1 25989U 99066A   23154.51698060  .00000026  00000+0  00000+0 0  9999
2 25989  69.1306 298.6602 5565235  82.5613   0.1069  0.50134460 17444
DMSP 5D-3 F15 (USA 147) 
1 25991U 99067A   23156.20155390  .00000191  00000+0  11858-3 0  9995
2 25991  99.0697 159.2483 0008923 268.9135 163.0288 14.16739742213734
TERRA                   
1 25994U 99068A   23156.19410089  .00000527  00000+0  12127-3 0  9999
2 25994  98.0946 224.8754 0002988 102.3249 316.0068 14.59241838248033
CELESTIS-03 & TAURUS R/B
1 26034U 99070C   23155.87645358  .00148116  00000+0  20814-2 0  9999
2 26034  98.2691 207.6861 0001287 261.5252  98.5854 15.56177665274958
