[{"OBJECT_NAME":"ORBCOMM FM27","OBJECT_ID":"1998-053G","EPOCH":"2023-06-04T18:21:25.345152","MEAN_MOTION":14.34310791,"ECCENTRICITY":0.0003012,"INCLINATION":45.0051,"RA_OF_ASC_NODE":180.5733,"ARG_OF_PERICENTER":269.6181,"MEAN_ANOMALY":90.4321,"EPHEMERIS_TYPE":0,"CLASSIFICATION_TYPE":"U","NORAD_CAT_ID":25481,"ELEMENT_SET_NO":999,"REV_AT_EPOCH":29081,"BSTAR":0.00029753,"MEAN_MOTION_DOT":7.02e-6,"MEAN_MOTION_DDOT":0},{"OBJECT_NAME":"SCD 2","OBJECT_ID":"1998-060A","EPOCH":"2023-06-05T03:15:50.915808","MEAN_MOTION":14.44429369,"ECCENTRICITY":0.0016922,"INCLINATION":24.9961,"RA_OF_ASC_NODE":59.9153,"ARG_OF_PERICENTER":303.682,"MEAN_ANOMALY":205.0383,"EPHEMERIS_TYPE":0,"CLASSIFICATION_TYPE":"U","NORAD_CAT_ID":25504,"ELEMENT_SET_NO":999,"REV_AT_EPOCH":30024,"BSTAR":7.865e-5,"MEAN_MOTION_DOT":4.57e-6,"MEAN_MOTION_DDOT":0},{"OBJECT_NAME":"ISS (ZARYA)","OBJECT_ID":"1998-067A","EPOCH":"2023-06-05T09:13:20.000064","MEAN_MOTION":15.50489937,"ECCENTRICITY":0.0005522,"INCLINATION":51.6424,"RA_OF_ASC_NODE":27.0478,"ARG_OF_PERICENTER":55.0745,"MEAN_ANOMALY":281.4638,"EPHEMERIS_TYPE":0,"CLASSIFICATION_TYPE":"U","NORAD_CAT_ID":25544,"ELEMENT_SET_NO":999,"REV_AT_EPOCH":39995,"BSTAR":0.00022444,"MEAN_MOTION_DOT":0.00012599,"MEAN_MOTION_DDOT":0},{"OBJECT_NAME":"SWAS","OBJECT_ID":"1998-071A","EPOCH":"2023-06-04T18:45:11.238048","MEAN_MOTION":14.96854243,"ECCENTRICITY":0.0006562,"INCLINATION":69.8964,"RA_OF_ASC_NODE":177.3409,"ARG_OF_PERICENTER":174.1085,"MEAN_ANOMALY":186.015,"EPHEMERIS_TYPE":0,"CLASSIFICATION_TYPE":"U","NORAD_CAT_ID":25560,"ELEMENT_SET_NO":999,"REV_AT_EPOCH":33070,"BSTAR":0.00014839,"MEAN_MOTION_DOT":1.612e-5,"MEAN_MOTION_DDOT":0},{"OBJECT_NAME":"SKYNET 4E","OBJECT_ID":"1999-009B","EPOCH":"2023-06-04T19:37:00.662592","MEAN_MOTION":1.00274954,"ECCENTRICITY":0.0002002,"INCLINATION":11.4279,"RA_OF_ASC_NODE":15.0667,"ARG_OF_PERICENTER":59.3662,"MEAN_ANOMALY":111.642,"EPHEMERIS_TYPE":0,"CLASSIFICATION_TYPE":"U","NORAD_CAT_ID":25639,"ELEMENT_SET_NO":999,"REV_AT_EPOCH":4027,"BSTAR":0,"MEAN_MOTION_DOT":-2.7e-7,"MEAN_MOTION_DDOT":0},{"OBJECT_NAME":"LANDSAT 7","OBJECT_ID":"1999-020A","EPOCH":"2023-06-05T05:12:17.085024","MEAN_MOTION":14.60106286,"ECCENTRICITY":0.0001819,"INCLINATION":97.9297,"RA_OF_ASC_NODE":195.0621,"ARG_OF_PERICENTER":93.0378,"MEAN_ANOMALY":342.2287,"EPHEMERIS_TYPE":0,"CLASSIFICATION_TYPE":"U","NORAD_CAT_ID":25682,"ELEMENT_SET_NO":999,"REV_AT_EPOCH":28403,"BSTAR":0.0001032,"MEAN_MOTION_DOT":4.53e-6,"MEAN_MOTION_DDOT":0},{"OBJECT_NAME":"DLR-TUBSAT","OBJECT_ID":"1999-029B","EPOCH":"2023-06-04T22:10:50.705472","MEAN_MOTION":14.5166114,"ECCENTRICITY":0.0015377,"INCLINATION":98.5334,"RA_OF_ASC_NODE":107.8226,"ARG_OF_PERICENTER":121.0024,"MEAN_ANOMALY":239.2683,"EPHEMERIS_TYPE":0,"CLASSIFICATION_TYPE":"U","NORAD_CAT_ID":25757,"ELEMENT_SET_NO":999,"REV_AT_EPOCH":27251,"BSTAR":4.3375e-5,"MEAN_MOTION_DOT":1.27e-6,"MEAN_MOTION_DDOT":0},{"OBJECT_NAME":"CXO","OBJECT_ID":"1999-040B","EPOCH":"2023-06-06T09:09:10.513152","MEAN_MOTION":0.37813818,"ECCENTRICITY":0.904852,"INCLINATION":37.6776,"RA_OF_ASC_NODE":198.2438,"ARG_OF_PERICENTER":261.2194,"MEAN_ANOMALY":0.1201,"EPHEMERIS_TYPE":0,"CLASSIFICATION_TYPE":"U","NORAD_CAT_ID":25867,"ELEMENT_SET_NO":999,"REV_AT_EPOCH":2429,"BSTAR":0,"MEAN_MOTION_DOT":6.1e-6,"MEAN_MOTION_DDOT":0},{"OBJECT_NAME":"ABS-6","OBJECT_ID":"1999-053A","EPOCH":"2023-06-05T02:28:42.534048","MEAN_MOTION":1.00275818,"ECCENTRICITY":0.0002889,"INCLINATION":0.0107,"RA_OF_ASC_NODE":54.2445,"ARG_OF_PERICENTER":25.8016,"MEAN_ANOMALY":9.3813,"EPHEMERIS_TYPE":0,"CLASSIFICATION_TYPE":"U","NORAD_CAT_ID":25924,"ELEMENT_SET_NO":999,"REV_AT_EPOCH":8672,"BSTAR":0,"MEAN_MOTION_DOT":-1.05e-6,"MEAN_MOTION_DDOT":0},{"OBJECT_NAME":"NAVSTAR 46 (USA 145)","OBJECT_ID":"1999-055A","EPOCH":"2023-06-04T11:01:26.880960","MEAN_MOTION":2.00566247,"ECCENTRICITY":0.0134316,"INCLINATION":52.2895,"RA_OF_ASC_NODE":343.533,"ARG_OF_PERICENTER":140.1355,"MEAN_ANOMALY":221.0655,"EPHEMERIS_TYPE":0,"CLASSIFICATION_TYPE":"U","NORAD_CAT_ID":25933,"ELEMENT_SET_NO":999,"REV_AT_EPOCH":17334,"BSTAR":0,"MEAN_MOTION_DOT":-6.9e-7,"MEAN_MOTION_DDOT":0},{"OBJECT_NAME":"UFO 10 (USA 146)","OBJECT_ID":"1999-063A","EPOCH":"2023-06-04T22:57:05.196096","MEAN_MOTION":1.00271557,"ECCENTRICITY":0.000422,"INCLINATION":9.1514,"RA_OF_ASC_NODE":32.1956,"ARG_OF_PERICENTER":65.9767,"MEAN_ANOMALY":116.4409,"EPHEMERIS_TYPE":0,"CLASSIFICATION_TYPE":"U","NORAD_CAT_ID":25967,"ELEMENT_SET_NO":999,"REV_AT_EPOCH":8622,"BSTAR":0,"MEAN_MOTION_DOT":-1.79e-6,"MEAN_MOTION_DDOT":0},{"OBJECT_NAME":"ORBCOMM FM32","OBJECT_ID":"1999-065C","EPOCH":"2023-06-05T00:09:53.216352","MEAN_MOTION":14.33105312,"ECCENTRICITY":0.0005103,"INCLINATION":45.0181,"RA_OF_ASC_NODE":2.606,"ARG_OF_PERICENTER":284.9233,"MEAN_ANOMALY":75.1049,"EPHEMERIS_TYPE":0,"CLASSIFICATION_TYPE":"U","NORAD_CAT_ID":25982,"ELEMENT_SET_NO":999,"REV_AT_EPOCH":22801,"BSTAR":0.00029383,"MEAN_MOTION_DOT":6.73e-6,"MEAN_MOTION_DDOT":0},{"OBJECT_NAME":"ORBCOMM FM35","OBJECT_ID":"1999-065F","EPOCH":"2023-06-05T00:05:07.996128","MEAN_MOTION":14.34098325,"ECCENTRICITY":0.0002731,"INCLINATION":45.0418,"RA_OF_ASC_NODE":2.4472,"ARG_OF_PERICENTER":290.9179,"MEAN_ANOMALY":69.1376,"EPHEMERIS_TYPE":0,"CLASSIFICATION_TYPE":"U","NORAD_CAT_ID":25985,"ELEMENT_SET_NO":999,"REV_AT_EPOCH":22819,"BSTAR":0.00032534,"MEAN_MOTION_DOT":7.77e-6,"MEAN_MOTION_DDOT":0},{"OBJECT_NAME":"XMM-NEWTON","OBJECT_ID":"1999-066A","EPOCH":"2023-06-03T12:24:27.123840","MEAN_MOTION":0.5013446,"ECCENTRICITY":0.5565235,"INCLINATION":69.1306,"RA_OF_ASC_NODE":298.6602,"ARG_OF_PERICENTER":82.5613,"MEAN_ANOMALY":0.1069,"EPHEMERIS_TYPE":0,"CLASSIFICATION_TYPE":"U","NORAD_CAT_ID":25989,"ELEMENT_SET_NO":999,"REV_AT_EPOCH":1744,"BSTAR":0,"MEAN_MOTION_DOT":2.6e-7,"MEAN_MOTION_DDOT":0},{"OBJECT_NAME":"DMSP 5D-3 F15 (USA 147)","OBJECT_ID":"1999-067A","EPOCH":"2023-06-05T04:50:14.256960","MEAN_MOTION":14.16739742,"ECCENTRICITY":0.0008923,"INCLINATION":99.0697,"RA_OF_ASC_NODE":159.2483,"ARG_OF_PERICENTER":268.9135,"MEAN_ANOMALY":163.0288,"EPHEMERIS_TYPE":0,"CLASSIFICATION_TYPE":"U","NORAD_CAT_ID":25991,"ELEMENT_SET_NO":999,"REV_AT_EPOCH":21373,"BSTAR":0.00011858,"MEAN_MOTION_DOT":1.91e-6,"MEAN_MOTION_DDOT":0},{"OBJECT_NAME":"TERRA","OBJECT_ID":"1999-068A","EPOCH":"2023-06-05T04:39:30.316896","MEAN_MOTION":14.59241838,"ECCENTRICITY":0.0002988,"INCLINATION":98.0946,"RA_OF_ASC_NODE":224.8754,"ARG_OF_PERICENTER":102.3249,"MEAN_ANOMALY":316.0068,"EPHEMERIS_TYPE":0,"CLASSIFICATION_TYPE":"U","NORAD_CAT_ID":25994,"ELEMENT_SET_NO":999,"REV_AT_EPOCH":24803,"BSTAR":0.00012127,"MEAN_MOTION_DOT":5.27e-6,"MEAN_MOTION_DDOT":0},{"OBJECT_NAME":"CELESTIS-03 & TAURUS R\/B","OBJECT_ID":"1999-070C","EPOCH":"2023-06-04T21:02:05.589312","MEAN_MOTION":15.56177665,"ECCENTRICITY":0.0001287,"INCLINATION":98.2691,"RA_OF_ASC_NODE":207.6861,"ARG_OF_PERICENTER":261.5252,"MEAN_ANOMALY":98.5854,"EPHEMERIS_TYPE":0,"CLASSIFICATION_TYPE":"U","NORAD_CAT_ID":26034,"ELEMENT_SET_NO":999,"REV_AT_EPOCH":27495,"BSTAR":0.0020814,"MEAN_MOTION_DOT":0.00148116,"MEAN_MOTION_DDOT":0}]
